[{"OBJECT_NAME":"COSMOS 2538","OBJECT_ID":"2019-039D","EPOCH":"2026-03-09T23:22:28.343424","MEAN_MOTION":15.19536029,"ECCENTRICITY":0.00437345,"INCLINATION":97.5929,"RA_OF_ASC_NODE":147.7512,"ARG_OF_PERICENTER":31.8471,"MEAN_ANOMALY":328.5393,"EPHEMERIS_TYPE":0,"CLASSIFICATION_TYPE":"U","NORAD_CAT_ID":44424,"ELEMENT_SET_NO":999,"REV_AT_EPOCH":36483,"BSTAR":0.00035711669,"MEAN_MOTION_DOT":7.713e-5,"MEAN_MOTION_DDOT":0},{"OBJECT_NAME":"STARLINK-32403","OBJECT_ID":"2024-191J","EPOCH":"2026-03-09T06:39:40.408128","MEAN_MOTION":15.27567609,"ECCENTRICITY":0.00011194,"INCLINATION":43.0031,"RA_OF_ASC_NODE":156.8087,"ARG_OF_PERICENTER":233.473,"MEAN_ANOMALY":126.6018,"EPHEMERIS_TYPE":0,"CLASSIFICATION_TYPE":"U","NORAD_CAT_ID":61629,"ELEMENT_SET_NO":999,"REV_AT_EPOCH":7747,"BSTAR":1.3364739e-5,"MEAN_MOTION_DOT":1.06e-6,"MEAN_MOTION_DDOT":0}]
